{
  "type": "FeatureCollection",
  "features": [
    {
      "type": "Feature",
      "properties": {
        "norad_id": 31783,
        "name": "FENGYUN 1C DEB",
        "group": "fengyun-1c-debris",
        "lat": -48.834206599002975,
        "lon": 167.45172866236356,
        "alt_km": 945.3688282239837,
        "timestamp": "2025-12-14T20:40:32.055893+00:00",
        "meta_object_name": "FENGYUN 1C DEB",
        "meta_object_id": "1999-025CGJ",
        "meta_epoch": "2025-12-12T23:24:59.164992",
        "meta_mean_motion": 14.08828598,
        "meta_eccentricity": 0.01043112,
        "meta_inclination": 98.6046,
        "meta_ra_of_asc_node": 355.6233,
        "meta_arg_of_pericenter": 49.3124,
        "meta_mean_anomaly": 341.2861,
        "meta_ephemeris_type": 0,
        "meta_classification_type": "U",
        "meta_norad_cat_id": 31783,
        "meta_element_set_no": 999,
        "meta_rev_at_epoch": 89224,
        "meta_bstar": 0.00080731218,
        "meta_mean_motion_dot": 1.424e-05,
        "meta_mean_motion_ddot": 0,
        "tle_line1": "1 31783U 99025CGJ 25346.97568478  .00001424  00000+0  80731-3 0  9993",
        "tle_line2": "2 31783  98.6046 355.6233 0104311  49.3124 341.2861 14.08828598892240"
      },
      "geometry": {
        "type": "Point",
        "coordinates": [
          167.45172866236356,
          -48.834206599002975
        ]
      }
    },
    {
      "type": "Feature",
      "properties": {
        "norad_id": 31788,
        "name": "FENGYUN 1C DEB",
        "group": "fengyun-1c-debris",
        "lat": 51.96948389802213,
        "lon": -31.072594887037717,
        "alt_km": 829.4982182112481,
        "timestamp": "2025-12-14T20:40:32.055903+00:00",
        "meta_object_name": "FENGYUN 1C DEB",
        "meta_object_id": "1999-025CGP",
        "meta_epoch": "2025-12-13T21:35:25.993824",
        "meta_mean_motion": 13.451003,
        "meta_eccentricity": 0.04623391,
        "meta_inclination": 102.5553,
        "meta_ra_of_asc_node": 131.1712,
        "meta_arg_of_pericenter": 84.2193,
        "meta_mean_anomaly": 62.6781,
        "meta_ephemeris_type": 0,
        "meta_classification_type": "U",
        "meta_norad_cat_id": 31788,
        "meta_element_set_no": 999,
        "meta_rev_at_epoch": 90620,
        "meta_bstar": 0.0029579039,
        "meta_mean_motion_dot": 3.267e-05,
        "meta_mean_motion_ddot": 0,
        "tle_line1": "1 31788U 99025CGP 25347.89960641  .00003267  00000+0  29579-2 0  9997",
        "tle_line2": "2 31788 102.5553 131.1712 0462339  84.2193  62.6781 13.45100300906204"
      },
      "geometry": {
        "type": "Point",
        "coordinates": [
          -31.072594887037717,
          51.96948389802213
        ]
      }
    },
    {
      "type": "Feature",
      "properties": {
        "norad_id": 31805,
        "name": "FENGYUN 1C DEB",
        "group": "fengyun-1c-debris",
        "lat": 58.39558958681293,
        "lon": -40.95030010636458,
        "alt_km": 883.1253302433124,
        "timestamp": "2025-12-14T20:40:32.055914+00:00",
        "meta_object_name": "FENGYUN 1C DEB",
        "meta_object_id": "1999-025CGT",
        "meta_epoch": "2025-12-14T04:58:25.142880",
        "meta_mean_motion": 14.0282703,
        "meta_eccentricity": 0.04471858,
        "meta_inclination": 98.3629,
        "meta_ra_of_asc_node": 332.2775,
        "meta_arg_of_pericenter": 154.7289,
        "meta_mean_anomaly": 207.6506,
        "meta_ephemeris_type": 0,
        "meta_classification_type": "U",
        "meta_norad_cat_id": 31805,
        "meta_element_set_no": 999,
        "meta_rev_at_epoch": 62384,
        "meta_bstar": 0.001073632,
        "meta_mean_motion_dot": 4.017e-05,
        "meta_mean_motion_ddot": 0,
        "tle_line1": "1 31805U 99025CGT 25348.20723545  .00004017  00000+0  10736-2 0  9992",
        "tle_line2": "2 31805  98.3629 332.2775 0447185 154.7289 207.6506 14.02827030623846"
      },
      "geometry": {
        "type": "Point",
        "coordinates": [
          -40.95030010636458,
          58.39558958681293
        ]
      }
    },
    {
      "type": "Feature",
      "properties": {
        "norad_id": 31807,
        "name": "FENGYUN 1C DEB",
        "group": "fengyun-1c-debris",
        "lat": 34.522525539262055,
        "lon": 113.66670621880385,
        "alt_km": 754.6273200706728,
        "timestamp": "2025-12-14T20:40:32.055924+00:00",
        "meta_object_name": "FENGYUN 1C DEB",
        "meta_object_id": "1999-025CGV",
        "meta_epoch": "2025-12-10T13:58:33.299040",
        "meta_mean_motion": 14.52012517,
        "meta_eccentricity": 0.0105585,
        "meta_inclination": 99.077,
        "meta_ra_of_asc_node": 115.3578,
        "meta_arg_of_pericenter": 168.9793,
        "meta_mean_anomaly": 191.3748,
        "meta_ephemeris_type": 0,
        "meta_classification_type": "U",
        "meta_norad_cat_id": 31807,
        "meta_element_set_no": 999,
        "meta_rev_at_epoch": 65274,
        "meta_bstar": 0.0016349,
        "meta_mean_motion_dot": 7.055e-05,
        "meta_mean_motion_ddot": 0,
        "tle_line1": "1 31807U 99025CGV 25344.58232985  .00007055  00000+0  16349-2 0  9995",
        "tle_line2": "2 31807  99.0770 115.3578 0105585 168.9793 191.3748 14.52012517652745"
      },
      "geometry": {
        "type": "Point",
        "coordinates": [
          113.66670621880385,
          34.522525539262055
        ]
      }
    },
    {
      "type": "Feature",
      "properties": {
        "norad_id": 31808,
        "name": "FENGYUN 1C DEB",
        "group": "fengyun-1c-debris",
        "lat": 45.10287961602249,
        "lon": 5.422939863442212,
        "alt_km": 671.2684479487725,
        "timestamp": "2025-12-14T20:40:32.055934+00:00",
        "meta_object_name": "FENGYUN 1C DEB",
        "meta_object_id": "1999-025CGW",
        "meta_epoch": "2025-12-06T07:42:11.494368",
        "meta_mean_motion": 14.56748696,
        "meta_eccentricity": 0.00373205,
        "meta_inclination": 99.2035,
        "meta_ra_of_asc_node": 166.6313,
        "meta_arg_of_pericenter": 160.2351,
        "meta_mean_anomaly": 200.03,
        "meta_ephemeris_type": 0,
        "meta_classification_type": "U",
        "meta_norad_cat_id": 31808,
        "meta_element_set_no": 999,
        "meta_rev_at_epoch": 57509,
        "meta_bstar": 0.0088520938,
        "meta_mean_motion_dot": 0.00040137,
        "meta_mean_motion_ddot": 0,
        "tle_line1": "1 31808U 99025CGW 25340.32096637  .00040137  00000+0  88521-2 0  9995",
        "tle_line2": "2 31808  99.2035 166.6313 0037320 160.2351 200.0300 14.56748696575096"
      },
      "geometry": {
        "type": "Point",
        "coordinates": [
          5.422939863442212,
          45.10287961602249
        ]
      }
    },
    {
      "type": "Feature",
      "properties": {
        "norad_id": 31810,
        "name": "FENGYUN 1C DEB",
        "group": "fengyun-1c-debris",
        "lat": -60.89812026221532,
        "lon": 169.04882547686688,
        "alt_km": 790.6933851192343,
        "timestamp": "2025-12-14T20:40:32.055944+00:00",
        "meta_object_name": "FENGYUN 1C DEB",
        "meta_object_id": "1999-025CGY",
        "meta_epoch": "2025-12-10T19:14:38.414400",
        "meta_mean_motion": 14.45816782,
        "meta_eccentricity": 0.02143836,
        "meta_inclination": 98.27,
        "meta_ra_of_asc_node": 0.2345,
        "meta_arg_of_pericenter": 146.2417,
        "meta_mean_anomaly": 215.2641,
        "meta_ephemeris_type": 0,
        "meta_classification_type": "U",
        "meta_norad_cat_id": 31810,
        "meta_element_set_no": 999,
        "meta_rev_at_epoch": 64386,
        "meta_bstar": 0.00077969827,
        "meta_mean_motion_dot": 3.63e-05,
        "meta_mean_motion_ddot": 0,
        "tle_line1": "1 31810U 99025CGY 25344.80183350  .00003630  00000+0  77970-3 0  9998",
        "tle_line2": "2 31810  98.2700   0.2345 0214383 146.2417 215.2641 14.45816782643865"
      },
      "geometry": {
        "type": "Point",
        "coordinates": [
          169.04882547686688,
          -60.89812026221532
        ]
      }
    },
    {
      "type": "Feature",
      "properties": {
        "norad_id": 31813,
        "name": "FENGYUN 1C DEB",
        "group": "fengyun-1c-debris",
        "lat": -11.277831730008934,
        "lon": -113.26075166141904,
        "alt_km": 799.6471226183767,
        "timestamp": "2025-12-14T20:40:32.055955+00:00",
        "meta_object_name": "FENGYUN 1C DEB",
        "meta_object_id": "1999-025CHB",
        "meta_epoch": "2025-12-14T01:34:02.721792",
        "meta_mean_motion": 14.49788762,
        "meta_eccentricity": 0.01361095,
        "meta_inclination": 99.427,
        "meta_ra_of_asc_node": 67.7481,
        "meta_arg_of_pericenter": 329.7669,
        "meta_mean_anomaly": 29.5718,
        "meta_ephemeris_type": 0,
        "meta_classification_type": "U",
        "meta_norad_cat_id": 31813,
        "meta_element_set_no": 999,
        "meta_rev_at_epoch": 97275,
        "meta_bstar": 0.00053593971,
        "meta_mean_motion_dot": 2.264e-05,
        "meta_mean_motion_ddot": 0,
        "tle_line1": "1 31813U 99025CHB 25348.06530928  .00002264  00000+0  53594-3 0  9998",
        "tle_line2": "2 31813  99.4270  67.7481 0136109 329.7669  29.5718 14.49788762972752"
      },
      "geometry": {
        "type": "Point",
        "coordinates": [
          -113.26075166141904,
          -11.277831730008934
        ]
      }
    }
  ]
}